OBJECT_NAME,OBJECT_ID,EPOCH,MEAN_MOTION,ECCENTRICITY,INCLINATION,RA_OF_ASC_NODE,ARG_OF_PERICENTER,MEAN_ANOMALY,EPHEMERIS_TYPE,CLASSIFICATION_TYPE,NORAD_CAT_ID,ELEMENT_SET_NO,REV_AT_EPOCH,BSTAR,MEAN_MOTION_DOT,MEAN_MOTION_DDOT
SKYSAT-C4,2016-058B,2026-06-16T00:57:15.967296,15.48556256,.0001268,96.9166,188.8600,131.8208,228.3152,0,U,41771,999,54529,.27566E-3,.14609E-3,0
SKYSAT-C5,2016-058C,2026-06-15T16:03:44.387136,15.34452064,.00011999,97.0467,207.3773,328.6214,31.4958,0,U,41772,999,54351,.19783339E-3,.6527E-4,0
SKYSAT-C2,2016-058D,2026-06-16T00:38:04.615584,15.42049192,.0004751,97.0163,189.1649,73.2340,286.9429,0,U,41773,999,54487,.24536E-3,.104E-3,0
SKYSAT-C3,2016-058E,2026-06-16T01:08:36.464064,15.52496769,.0001527,96.8999,197.9382,92.3501,267.7928,0,U,41774,999,54593,.34533E-3,.21082E-3,0
ALSAT-1B,2016-059C,2026-06-16T05:17:51.050400,14.72274828,.0008016,97.7743,176.0258,223.9844,136.0727,0,U,41785,999,52043,.71885E-4,.407E-5,0
PATHFINDER 1,2016-059E,2026-06-15T23:27:37.958688,14.67661967,.0027712,97.8166,166.3084,207.5228,152.4511,0,U,41787,999,51953,.91754E-4,.478E-5,0
SCATSAT 1,2016-059H,2026-06-15T22:16:44.135040,14.79523114,.0053342,98.1191,230.6814,251.6526,107.8878,0,U,41790,999,10140,.12836E-3,.925E-5,0
GOKTURK 1A,2016-073A,2026-06-16T05:16:20.159328,14.62774717,.0001458,98.1260,61.9101,75.4608,284.6756,0,U,41875,999,50868,.10896E-3,.509E-5,0
RESOURCESAT-2A,2016-074A,2026-06-16T03:44:23.720640,14.21615639,.0003352,98.7534,240.6682,86.0699,274.0861,0,U,41877,999,49415,-.25134E-4,-.99E-6,0
CARTOSAT-2D,2017-008A,2026-06-16T04:05:27.339648,15.19330487,.000394,97.4110,226.4952,232.5321,127.5556,0,U,41948,999,51742,.23736E-3,.4948E-4,0
SENTINEL-2B,2017-013A,2026-06-16T03:48:17.864640,14.30816676,.0001177,98.5698,241.9471,87.9712,272.1606,0,U,42063,999,48449,.31951E-4,.4E-6,0
CARTOSAT-2E,2017-036C,2026-06-16T04:31:10.949088,15.19248116,.0002539,97.4275,227.0072,324.2887,35.8177,0,U,42767,999,49799,.19696E-3,.4083E-4,0
FORMOSAT-5,2017-049A,2026-06-16T03:45:11.199168,14.50898532,.0012692,98.2254,242.4890,87.2080,273.0567,0,U,42920,999,46652,.44179E-4,.131E-5,0
SENTINEL-5P,2017-064A,2026-06-16T01:46:42.658176,14.19518793,.0000962,98.7925,109.2132,84.5019,275.6267,0,U,42969,999,44940,.37658E-4,.35E-6,0
SKYSAT-C11,2017-068A,2026-06-15T21:37:34.889664,15.57835924,.0000694,97.4350,315.6753,90.1959,269.9376,0,U,42987,999,48304,.31148E-3,.23112E-3,0
SKYSAT-C10,2017-068B,2026-06-16T02:50:53.507040,15.34622992,.000113,97.4508,303.9548,96.0955,264.0417,0,U,42988,999,48219,.23298E-3,.7735E-4,0
SKYSAT-C9,2017-068C,2026-06-16T03:15:03.430368,15.41538752,.0009391,97.4428,304.8965,136.1767,224.0226,0,U,42989,999,48259,.2709E-3,.11304E-3,0
SKYSAT-C8,2017-068D,2026-06-15T21:30:43.332768,15.36954095,.0001464,97.4525,303.5252,96.1908,263.9503,0,U,42990,999,48211,.22785E-3,.8152E-4,0
SKYSAT-C7,2017-068E,2026-06-15T21:21:28.342368,15.36904194,.0007191,97.4534,304.5080,110.3101,249.8916,0,U,42991,999,48217,.23848E-3,.8529E-4,0
SKYSAT-C6,2017-068F,2026-06-15T21:46:50.920320,15.34191902,.0004356,97.4568,304.5004,140.9315,219.2243,0,U,42992,999,48212,.23542E-3,.7712E-4,0
CARTOSAT-2F,2018-004A,2026-06-16T03:42:38.090592,15.19209881,.0000554,97.4793,226.7989,217.3941,142.7255,0,U,43111,999,46717,.1931E-3,.3996E-4,0
GAOFEN-1 02,2018-031A,2026-06-16T05:08:23.702208,14.76456525,.0003875,98.0531,229.7439,36.6555,323.4919,0,U,43259,999,44255,.13321E-3,.875E-5,0
GAOFEN-1 03,2018-031B,2026-06-16T04:36:56.504160,14.76467901,.000376,98.0517,229.5808,81.0206,279.1429,0,U,43260,999,44254,.96009E-4,.617E-5,0
GAOFEN-1 04,2018-031D,2026-06-16T04:01:54.374880,14.76478078,.0002239,98.0533,229.7469,82.9600,277.1864,0,U,43262,999,44253,.76072E-4,.478E-5,0
SENTINEL-3B,2018-039A,2026-06-16T01:37:23.086848,14.26734391,.0000724,98.6250,234.6159,87.1563,272.9700,0,U,43437,999,42396,.49012E-4,.75E-6,0
GAOFEN-5 01,2018-043A,2026-06-16T04:06:28.344960,14.60604846,.0003028,98.4569,138.7360,85.0469,275.1076,0,U,43461,999,43154,.65958E-4,.272E-5,0
GAOFEN-6,2018-048A,2026-06-15T20:26:00.300768,14.76597001,.00116931,97.8709,229.6314,171.3993,188.7420,0,U,43484,999,43319,.5061483E-4,.304E-5,0
GAOFEN-11 01,2018-063A,2026-06-16T04:59:52.787040,15.55261951,.0003168,97.1296,234.0898,2.7165,357.4107,0,U,43585,999,44019,.15185E-3,.10181E-3,0
ICESAT-2,2018-070A,2026-06-16T02:34:38.622144,15.28266482,.0005976,92.0082,290.6869,108.9570,251.2327,0,U,43613,999,43229,.28639E-3,.7888E-4,0
HYSIS,2018-096A,2026-06-16T04:42:46.920096,14.78693153,.0001915,97.9845,233.9522,107.0938,253.0483,0,U,43719,999,40727,.86776E-4,.585E-5,0
KAZSTSAT,2018-099AB,2026-06-16T00:43:18.003072,14.99862897,.0008447,97.4267,199.0110,72.8444,287.3704,0,U,43783,999,41113,.11554E-3,.1376E-4,0
