SKYSAT-C4               
1 41771U 16058B   26167.03976814  .00014609  00000+0  27566-3 0  9998
2 41771  96.9166 188.8600 0001268 131.8208 228.3152 15.48556256545295
SKYSAT-C5               
1 41772U 16058C   26166.66926374  .00006527  00000+0  19783-3 0  9995
2 41772  97.0467 207.3773 0001199 328.6214  31.4958 15.34452064543513
SKYSAT-C2               
1 41773U 16058D   26167.02644231  .00010400  00000+0  24536-3 0  9993
2 41773  97.0163 189.1649 0004751  73.2340 286.9429 15.42049192544879
SKYSAT-C3               
1 41774U 16058E   26167.04764426  .00021082  00000+0  34533-3 0  9991
2 41774  96.8999 197.9382 0001527  92.3501 267.7928 15.52496769545930
ALSAT-1B                
1 41785U 16059C   26167.22072975  .00000407  00000+0  71885-4 0  9995
2 41785  97.7743 176.0258 0008016 223.9844 136.0727 14.72274828520435
PATHFINDER 1            
1 41787U 16059E   26166.97752267  .00000478  00000+0  91754-4 0  9992
2 41787  97.8166 166.3084 0027712 207.5228 152.4511 14.67661967519534
SCATSAT 1               
1 41790U 16059H   26166.92828860  .00000925  00000+0  12836-3 0  9994
2 41790  98.1191 230.6814 0053342 251.6526 107.8878 14.79523114101402
GOKTURK 1A              
1 41875U 16073A   26167.21967777  .00000509  00000+0  10896-3 0  9990
2 41875  98.1260  61.9101 0001458  75.4608 284.6756 14.62774717508680
RESOURCESAT-2A          
1 41877U 16074A   26167.15583010 -.00000099  00000+0 -25134-4 0  9998
2 41877  98.7534 240.6682 0003352  86.0699 274.0861 14.21615639494153
CARTOSAT-2D             
1 41948U 17008A   26167.17045532  .00004948  00000+0  23736-3 0  9999
2 41948  97.4110 226.4952 0003940 232.5321 127.5556 15.19330487517425
SENTINEL-2B             
1 42063U 17013A   26167.15854010  .00000040  00000+0  31951-4 0  9999
2 42063  98.5698 241.9471 0001177  87.9712 272.1606 14.30816676484495
CARTOSAT-2E             
1 42767U 17036C   26167.18832117  .00004083  00000+0  19696-3 0  9994
2 42767  97.4275 227.0072 0002539 324.2887  35.8177 15.19248116497992
FORMOSAT-5              
1 42920U 17049A   26167.15637962  .00000131  00000+0  44179-4 0  9992
2 42920  98.2254 242.4890 0012692  87.2080 273.0567 14.50898532466521
SENTINEL-5P             
1 42969U 17064A   26167.07410484  .00000035  00000+0  37658-4 0  9998
2 42969  98.7925 109.2132 0000962  84.5019 275.6267 14.19518793449408
SKYSAT-C11              
1 42987U 17068A   26166.90109826  .00023112  00000+0  31148-3 0  9996
2 42987  97.4350 315.6753 0000694  90.1959 269.9376 15.57835924483042
SKYSAT-C10              
1 42988U 17068B   26167.11867485  .00007735  00000+0  23298-3 0  9993
2 42988  97.4508 303.9548 0001130  96.0955 264.0417 15.34622992482198
SKYSAT-C9               
1 42989U 17068C   26167.13545637  .00011304  00000+0  27090-3 0  9999
2 42989  97.4428 304.8965 0009391 136.1767 224.0226 15.41538752482593
SKYSAT-C8               
1 42990U 17068D   26166.89633487  .00008152  00000+0  22785-3 0  9997
2 42990  97.4525 303.5252 0001464  96.1908 263.9503 15.36954095482117
SKYSAT-C7               
1 42991U 17068E   26166.88991137  .00008529  00000+0  23848-3 0  9995
2 42991  97.4534 304.5080 0007191 110.3101 249.8916 15.36904194482177
SKYSAT-C6               
1 42992U 17068F   26166.90753380  .00007712  00000+0  23542-3 0  9999
2 42992  97.4568 304.5004 0004356 140.9315 219.2243 15.34191902482129
CARTOSAT-2F             
1 43111U 18004A   26167.15460753  .00003996  00000+0  19310-3 0  9999
2 43111  97.4793 226.7989 0000554 217.3941 142.7255 15.19209881467170
GAOFEN-1 02             
1 43259U 18031A   26167.21416322  .00000875  00000+0  13321-3 0  9991
2 43259  98.0531 229.7439 0003875  36.6555 323.4919 14.76456525442556
GAOFEN-1 03             
1 43260U 18031B   26167.19232065  .00000617  00000+0  96009-4 0  9999
2 43260  98.0517 229.5808 0003760  81.0206 279.1429 14.76467901442542
GAOFEN-1 04             
1 43262U 18031D   26167.16799045  .00000478  00000+0  76072-4 0  9997
2 43262  98.0533 229.7469 0002239  82.9600 277.1864 14.76478078442532
SENTINEL-3B             
1 43437U 18039A   26167.06762832  .00000075  00000+0  49012-4 0  9999
2 43437  98.6250 234.6159 0000724  87.1563 272.9700 14.26734391423967
GAOFEN-5 01             
1 43461U 18043A   26167.17116140  .00000272  00000+0  65958-4 0  9994
2 43461  98.4569 138.7360 0003028  85.0469 275.1076 14.60604846431548
GAOFEN-6                
1 43484U 18048A   26166.85139237  .00000304  00000+0  50615-4 0  9990
2 43484  97.8709 229.6314 0011693 171.3993 188.7420 14.76597001433195
GAOFEN-11 01            
1 43585U 18063A   26167.20824985  .00010181  00000+0  15185-3 0  9996
2 43585  97.1296 234.0898 0003168   2.7165 357.4107 15.55261951440199
ICESAT-2                
1 43613U 18070A   26167.10739146  .00007888  00000+0  28639-3 0  9997
2 43613  92.0082 290.6869 0005976 108.9570 251.2327 15.28266482432293
HYSIS                   
1 43719U 18096A   26167.19637639  .00000585  00000+0  86776-4 0  9999
2 43719  97.9845 233.9522 0001915 107.0938 253.0483 14.78693153407270
KAZSTSAT                
1 43783U 18099AB  26167.03006948  .00001376  00000+0  11554-3 0  9999
2 43783  97.4267 199.0110 0008447  72.8444 287.3704 14.99862897411139
